NORAD_CAT_ID,OBJECT_NAME,OBJECT_TYPE,EPOCH,MEAN_MOTION,ECCENTRICITY,INCLINATION,RA_OF_ASC_NODE,ARG_OF_PERICENTER,MEAN_ANOMALY,BSTAR,MEAN_MOTION_DOT,MEAN_MOTION_DDOT,TLE_LINE0,TLE_LINE1,TLE_LINE2,SEMIMAJOR_AXIS,PERIOD,APOGEE,PERIGEE,DECAYED
51751.0,STARLINK-3506,PAYLOAD,2023-11-17 17:48:05,15.088383,0.000144,53.2149,133.2696,89.7623,270.3534,4.8053e-05,4.77e-06,0.0,0 STARLINK-3506,1 51751U 22016AP  23321.74173545  .00000477  00000-0  48053-4 0  9999,2 51751  53.2149 133.2696 0001440  89.7623 270.3534 15.08838300 96442,6917.886,95.438,540.747,538.754,0.0
51751.0,STARLINK-3506,PAYLOAD,2023-11-18 04:55:47,15.0883935,0.0001457,53.2151,131.1881,89.2128,270.9031,5.5781e-05,6e-06,0.0,0 STARLINK-3506,1 51751U 22016AP  23322.20541510  .00000600  00000-0  55781-4 0  9996,2 51751  53.2151 131.1881 0001457  89.2128 270.9031 15.08839350 96513,6917.882,95.438,540.755,538.739,0.0
51751.0,STARLINK-3506,PAYLOAD,2023-11-18 17:38:52,15.08843085,0.0001388,53.2151,128.8091,89.3186,270.7965,7.5151e-05,9.08e-06,0.0,0 STARLINK-3506,1 51751U 22016AP  23322.73533141  .00000908  00000-0  75151-4 0  9999,2 51751  53.2151 128.8091 0001388  89.3186 270.7965 15.08843085 97703,6917.871,95.437,540.696,538.776,0.0
51751.0,STARLINK-3506,PAYLOAD,2023-11-18 20:49:38,15.0884258,0.0001374,53.215,128.2142,89.7961,270.3188,6.3304e-05,7.2e-06,0.0,0 STARLINK-3506,1 51751U 22016AP  23322.86781130  .00000720  00000-0  63304-4 0  9995,2 51751  53.2150 128.2142 0001374  89.7961 270.3188 15.08842580 96614,6917.873,95.437,540.688,538.787,0.0
51751.0,STARLINK-3506,PAYLOAD,2023-11-19 14:18:52,15.08847879,0.0001337,53.2156,124.9432,89.338,270.7765,0.00011296,1.511e-05,0.0,0 STARLINK-3506,1 51751U 22016AP  23323.59644450  .00001511  00000-0  11296-3 0  9990,2 51751  53.2156 124.9432 0001337  89.3380 270.7765 15.08847879 96728,6917.856,95.437,540.646,538.796,0.0
51751.0,STARLINK-3506,PAYLOAD,2023-11-19 17:29:38,15.08849952,0.0001305,53.216,124.3477,93.4225,266.6916,0.00013301,1.83e-05,0.0,0 STARLINK-3506,1 51751U 22016AP  23323.72892190  .00001830  00000-0  13301-3 0  9994,2 51751  53.2160 124.3477 0001305  93.4225 266.6916 15.08849952 96743,6917.85,95.437,540.618,538.812,0.0
51751.0,STARLINK-3506,PAYLOAD,2023-11-20 14:09:40,15.0884047,0.0001204,53.2155,120.4823,90.6151,269.4979,8.034e-06,-1.6e-06,0.0,0 STARLINK-3506,1 51751U 22016AP  23324.59005024 -.00000160  00000-0  80340-5 0  9997,2 51751  53.2155 120.4823 0001204  90.6151 269.4979 15.08840470 96874,6917.879,95.438,540.577,538.911,0.0
51751.0,STARLINK-3506,PAYLOAD,2023-11-20 17:20:26,15.08838361,0.0001258,53.2157,119.8866,96.7309,263.3826,-3.8618e-06,-3.49e-06,0.0,0 STARLINK-3506,1 51751U 22016AP  23324.72253131 -.00000349  00000-0 -38618-5 0  9997,2 51751  53.2157 119.8866 0001258  96.7309 263.3826 15.08838361 98003,6917.885,95.438,540.621,538.88,0.0
51751.0,STARLINK-3506,PAYLOAD,2023-11-20 20:31:12,15.08841367,0.0001183,53.2157,119.292,96.0038,264.1089,-3.4288e-05,-8.34e-06,0.0,0 STARLINK-3506,1 51751U 22016AP  23324.85500997 -.00000834  00000-0 -34288-4 0  9993,2 51751  53.2157 119.2920 0001183  96.0038 264.1089 15.08841367 96915,6917.876,95.437,540.56,538.923,0.0
51751.0,STARLINK-3506,PAYLOAD,2023-11-21 10:49:41,15.08837114,0.0001284,53.2165,116.6169,97.1973,262.9165,-8.7509e-05,-1.68e-05,0.0,0 STARLINK-3506,1 51751U 22016AP  23325.45117534 -.00001680  00000-0 -87509-4 0  9995,2 51751  53.2165 116.6169 0001284  97.1973 262.9165 15.08837114 97009,6917.889,95.438,540.642,538.866,0.0
51751.0,STARLINK-3506,PAYLOAD,2023-11-21 15:35:50,15.08839357,0.0001291,53.2165,115.7249,97.2723,262.8416,-6.5817e-05,-1.335e-05,0.0,0 STARLINK-3506,1 51751U 22016AP  23325.64989339 -.00001335  00000-0 -65817-4 0  9991,2 51751  53.2165 115.7249 0001291  97.2723 262.8416 15.08839357 97032,6917.882,95.438,540.64,538.854,0.0
51751.0,STARLINK-3506,PAYLOAD,2023-11-22 13:51:14,15.08839437,0.0001367,53.2174,111.5628,98.8915,261.2232,9.7046e-05,1.257e-05,0.0,0 STARLINK-3506,1 51751U 22016AP  23326.57724973  .00001257  00000-0  97046-4 0  9995,2 51751  53.2174 111.5628 0001367  98.8915 261.2232 15.08839437 97174,6917.882,95.438,540.693,538.801,0.0
51751.0,STARLINK-3506,PAYLOAD,2023-11-22 15:26:37,15.08840676,0.000137,53.2173,111.2654,98.7276,261.3871,0.00010706,1.416e-05,0.0,0 STARLINK-3506,1 51751U 22016AP  23326.64348880  .00001416  00000-0  10706-3 0  9996,2 51751  53.2173 111.2654 0001370  98.7276 261.3871 15.08840676 98293,6917.878,95.438,540.691,538.796,0.0
51751.0,STARLINK-3506,PAYLOAD,2023-11-23 08:55:52,15.08836324,0.00018,53.2182,107.9991,88.5282,271.5916,6.7452e-06,-1.81e-06,0.0,0 STARLINK-3506,1 51751U 22016AP  23327.37213864 -.00000181  00000-0  67452-5 0  9991,2 51751  53.2182 107.9991 0001800  88.5282 271.5916 15.08836324 98402,6917.892,95.438,541.002,538.511,0.0
51751.0,STARLINK-3506,PAYLOAD,2023-11-23 13:42:02,15.08829537,0.0001325,53.2176,107.1019,94.6803,265.434,6.1245e-06,-1.9e-06,0.0,0 STARLINK-3506,1 51751U 22016AP  23327.57086373 -.00000190  00000-0  61245-5 0  9990,2 51751  53.2176 107.1019 0001325  94.6803 265.4340 15.08829537 97328,6917.912,95.438,540.694,538.861,0.0
51751.0,STARLINK-3506,PAYLOAD,2023-11-23 16:52:48,15.08846066,0.0001063,53.217,106.5069,91.3241,268.7872,-0.00018873,-3.291e-05,0.0,0 STARLINK-3506,1 51751U 22016AP  23327.70333919 -.00003291  00000-0 -18873-3 0  9999,2 51751  53.2170 106.5069 0001063  91.3241 268.7872 15.08846066 97343,6917.862,95.437,540.462,538.991,0.0
51751.0,STARLINK-3506,PAYLOAD,2023-11-24 13:32:49,15.08835622,0.0001403,53.2169,102.6401,90.8581,269.2572,8.52e-05,1.068e-05,0.0,0 STARLINK-3506,1 51751U 22016AP  23328.56446059  .00001068  00000-0  85200-4 0  9991,2 51751  53.2169 102.6401 0001403  90.8581 269.2572 15.08835622 97470,6917.894,95.438,540.729,538.788,0.0
51751.0,STARLINK-3506,PAYLOAD,2023-11-24 16:43:35,15.08804614,0.0001618,53.217,102.0458,90.5249,269.5928,0.00058095,8.961e-05,0.0,0 STARLINK-3506,1 51751U 22016AP  23328.69694418  .00008961  00000-0  58095-3 0  9999,2 51751  53.2170 102.0458 0001618  90.5249 269.5928 15.08804614 98605,6917.989,95.44,540.973,538.734,0.0
51751.0,STARLINK-3506,PAYLOAD,2023-11-25 13:23:36,15.08834022,0.000169,53.2179,98.1847,71.6449,288.4727,0.00014996,2.099e-05,0.0,0 STARLINK-3506,1 51751U 22016AP  23329.55806475  .00002099  00000-0  14996-3 0  9991,2 51751  53.2179  98.1847 0001690  71.6449 288.4727 15.08834022 97627,6917.899,95.438,540.933,538.595,0.0
51751.0,STARLINK-3506,PAYLOAD,2023-11-25 14:58:59,15.08840465,0.0001479,53.2161,97.8839,85.0142,275.1019,0.00014307,1.99e-05,0.0,0 STARLINK-3506,1 51751U 22016AP  23329.62430024  .00001990  00000-0  14307-3 0  9997,2 51751  53.2161  97.8839 0001479  85.0142 275.1019 15.08840465 97635,6917.879,95.438,540.767,538.721,0.0
51751.0,STARLINK-3506,PAYLOAD,2023-11-26 08:28:13,15.08857554,0.0001409,53.2161,94.6136,83.7803,276.3349,9.3243e-05,1.197e-05,0.0,0 STARLINK-3506,1 51751U 22016AP  23330.35292940  .00001197  00000-0  93243-4 0  9998,2 51751  53.2161  94.6136 0001409  83.7803 276.3349 15.08857554 98853,6917.827,95.436,540.666,538.717,0.0
51751.0,STARLINK-3506,PAYLOAD,2023-11-26 13:14:22,15.08859859,0.0001403,53.2164,93.722,80.5829,279.5321,0.00011026,1.468e-05,0.0,0 STARLINK-3506,1 51751U 22016AP  23330.55164570  .00001468  00000-0  11026-3 0  9996,2 51751  53.2164  93.7220 0001403  80.5829 279.5321 15.08859859 97772,6917.82,95.436,540.655,538.714,0.0
51751.0,STARLINK-3506,PAYLOAD,2023-11-26 18:00:30,15.08867682,0.0001307,53.2175,92.8254,93.9274,266.1867,0.0001766,2.526e-05,0.0,0 STARLINK-3506,1 51751U 22016AP  23330.75035542  .00002526  00000-0  17660-3 0  9990,2 51751  53.2175  92.8254 0001307  93.9274 266.1867 15.08867682 98913,6917.796,95.436,540.565,538.757,0.0
51751.0,STARLINK-3506,PAYLOAD,2023-11-27 11:29:48,15.08829449,0.0001363,53.2169,89.5558,101.5337,258.5808,-0.00012935,-2.345e-05,0.0,0 STARLINK-3506,1 51751U 22016AP  23331.47902948 -.00002345  00000-0 -12935-3 0  9994,2 51751  53.2169  89.5558 0001363 101.5337 258.5808 15.08829449 99026,6917.913,95.438,540.721,538.835,0.0
51751.0,STARLINK-3506,PAYLOAD,2023-11-27 14:40:34,15.08830818,0.0001522,53.2173,88.9609,105.1536,254.9625,-0.00011693,-2.148e-05,0.0,0 STARLINK-3506,1 51751U 22016AP  23331.61150879 -.00002148  00000-0 -11693-3 0  9999,2 51751  53.2173  88.9609 0001522 105.1536 254.9625 15.08830818 97936,6917.908,95.438,540.826,538.721,0.0
51751.0,STARLINK-3506,PAYLOAD,2023-11-28 11:20:34,15.0884416,0.0001159,53.2177,85.097,80.7597,279.3526,-7.8396e-05,-1.535e-05,0.0,0 STARLINK-3506,1 51751U 22016AP  23332.47262074 -.00001535  00000-0 -78396-4 0  9998,2 51751  53.2177  85.0970 0001159  80.7597 279.3526 15.08844160 99174,6917.868,95.437,540.534,538.931,0.0
51751.0,STARLINK-3506,PAYLOAD,2023-11-28 14:31:19,15.0885799,0.0001306,53.2177,84.4985,97.8125,262.3015,8.6159e-06,-1.51e-06,0.0,0 STARLINK-3506,1 51751U 22016AP  23332.60508869 -.00000151  00000-0  86159-5 0  9997,2 51751  53.2177  84.4985 0001306  97.8125 262.3015 15.08857990 98082,6917.825,95.436,540.594,538.787,0.0
51751.0,STARLINK-3506,PAYLOAD,2023-11-28 17:42:05,15.08857225,0.0001256,53.2178,83.9036,105.295,254.8181,-7.2807e-07,-3e-06,0.0,0 STARLINK-3506,1 51751U 22016AP  23332.73756863 -.00000300  00000-0 -72807-6 0  9993,2 51751  53.2178  83.9036 0001256 105.2950 254.8181 15.08857225 99215,6917.828,95.436,540.562,538.824,0.0
51751.0,STARLINK-3506,PAYLOAD,2023-11-29 11:11:21,15.0883402,0.0001526,53.2178,80.6316,112.3619,247.7535,0.00019398,2.8e-05,0.0,0 STARLINK-3506,1 51751U 22016AP  23333.46622258  .00002800  00000-0  19398-3 0  9992,2 51751  53.2178  80.6316 0001526 112.3619 247.7535 15.08834020 99325,6917.899,95.438,540.819,538.708,0.0
51751.0,STARLINK-3506,PAYLOAD,2023-11-29 14:22:07,15.08841743,0.0001407,53.2176,80.0379,107.573,252.5416,0.00025307,3.742e-05,0.0,0 STARLINK-3506,1 51751U 22016AP  23333.59869798  .00003742  00000-0  25307-3 0  9991,2 51751  53.2176  80.0379 0001407 107.5730 252.5416 15.08841743 98235,6917.875,95.437,540.713,538.767,0.0
